*******************************************************************************
 Revised: June 21, 2016                 Mars                            499 / 4
 
 PHYSICAL DATA (updated 2019-Oct-29):
  Vol. mean radius (km) = 3389.92+-0.04   Density (g/cm^3)      =  3.933(5+-4)
  Mass x10^23 (kg)      =    6.4171       Flattening, f         =  1/169.779
  Volume (x10^10 km^3)  =   16.318        Equatorial radius (km)=  3396.19
  Sidereal rot. period  =   24.622962 hr  Sid. rot. rate, rad/s =  0.0000708822 
  Mean solar day (sol)  =   88775.24415 s Polar gravity m/s^2   =  3.758
  Core radius (km)      = ~1700           Equ. gravity  m/s^2   =  3.71
  Geometric Albedo      =    0.150                                              

  GM (km^3/s^2)         = 42828.375214    Mass ratio (Sun/Mars) = 3098703.59
  GM 1-sigma (km^3/s^2) = +- 0.00028      Mass of atmosphere, kg= ~ 2.5 x 10^16
  Mean temperature (K)  =  210            Atmos. pressure (bar) =    0.0056 
  Obliquity to orbit    =   25.19 deg     Max. angular diam.    =  17.9"
  Mean sidereal orb per =    1.88081578 y Visual mag. V(1,0)    =  -1.52
  Mean sidereal orb per =  686.98 d       Orbital speed,  km/s  =  24.13
  Hill's sphere rad. Rp =  319.8          Escape speed, km/s    =   5.027
                                 Perihelion  Aphelion    Mean
  Solar Constant (W/m^2)         717         493         589
  Maximum Planetary IR (W/m^2)   470         315         390
  Minimum Planetary IR (W/m^2)    30          30          30
*******************************************************************************


*******************************************************************************
Ephemeris / WWW_USER Sun Jan 15 21:37:52 2023 Pasadena, USA      / Horizons
*******************************************************************************
Target body name: Mars (499)                      {source: mar097}
Center body name: Solar System Barycenter (0)     {source: DE441}
Center-site name: BODY CENTER
*******************************************************************************
Start time      : A.D. 2018-Jan-16 00:00:00.0000 TDB
Stop  time      : A.D. 2023-Feb-15 00:00:00.0000 TDB
Step-size       : 1440 minutes
*******************************************************************************
Center geodetic : 0.00000000,0.00000000,0.0000000 {E-lon(deg),Lat(deg),Alt(km)}
Center cylindric: 0.00000000,0.00000000,0.0000000 {E-lon(deg),Dxy(km),Dz(km)}
Center radii    : (undefined)                                                  
Output units    : KM-S
Output type     : GEOMETRIC cartesian states
Output format   : 3 (position, velocity, LT, range, range-rate)
Reference frame : Ecliptic of J2000.0
*******************************************************************************
JDTDB
   X     Y     Z
   VX    VY    VZ
   LT    RG    RR
*******************************************************************************
$$SOE
2459742.500000000 = A.D. 2022-Jun-12 00:00:00.0000 TDB 
 X = 1.778858056968019E+08 Y =-1.025423442737406E+08 Z =-6.522608444530249E+06
 VX= 1.297563156947619E+01 VY= 2.307549061812521E+01 VZ= 1.657702760261550E-01
 LT= 6.852354578797145E+02 RG= 2.054284222265151E+08 RR=-2.877668097222372E-01
2459743.500000000 = A.D. 2022-Jun-13 00:00:00.0000 TDB 
 X = 1.789968324936277E+08 Y =-1.005428939891960E+08 Z =-6.507918879145071E+06
 VX= 1.274232991061891E+01 VY= 2.320765429839426E+01 VZ= 1.742631917812556E-01
 LT= 6.851563436691417E+02 RG= 2.054047043828647E+08 RR=-2.612507057651351E-01
2459744.500000000 = A.D. 2022-Jun-14 00:00:00.0000 TDB 
 X = 1.800876373362631E+08 Y =-9.853213561325775E+07 Z =-6.492496263211295E+06
 VX= 1.250753619753766E+01 VY= 2.333724860513989E+01 VZ= 1.827388544328272E-01
 LT= 6.850848769732900E+02 RG= 2.053832792064502E+08 RR=-2.346964816483628E-01
2459745.500000000 = A.D. 2022-Jun-15 00:00:00.0000 TDB 
 X = 1.811580927316604E+08 Y =-9.651029200242215E+07 Z =-6.476342139877856E+06
 VX= 1.227128340163647E+01 VY= 2.346425364074876E+01 VZ= 1.911960323241804E-01
 LT= 6.850210682148520E+02 RG= 2.053641498219161E+08 RR=-2.081080122095030E-01
2459746.500000000 = A.D. 2022-Jun-16 00:00:00.0000 TDB 
 X = 1.822080740486048E+08 Y =-9.447758771085893E+07 Z =-6.459458158060599E+06
 VX= 1.203360480513983E+01 VY= 2.358865002764576E+01 VZ= 1.996335053246767E-01
 LT= 6.849649266958951E+02 RG= 2.053473190179522E+08 RR=-1.814892009007745E-01
2459747.500000000 = A.D. 2022-Jun-17 00:00:00.0000 TDB 
 X = 1.832374595457973E+08 Y =-9.243424894542800E+07 Z =-6.441846072218768E+06
 VX= 1.179453399324633E+01 VY= 2.371041890999903E+01 VZ= 2.080500641418013E-01
 LT= 6.849164605950020E+02 RG= 2.053327892464357E+08 RR=-1.548439744252755E-01
2459748.500000000 = A.D. 2022-Jun-18 00:00:00.0000 TDB 
 X = 1.842461303989302E+08 Y =-9.038050352025454E+07 Z =-6.423507742055386E+06
 VX= 1.155410486186477E+01 VY= 2.382954194941497E+01 VZ= 2.164445016734557E-01
 LT= 6.848756769646270E+02 RG= 2.053205626216395E+08 RR=-1.281762606691533E-01
2459749.500000000 = A.D. 2022-Jun-19 00:00:00.0000 TDB 
 X = 1.852339707268044E+08 Y =-8.831658081064311E+07 Z =-6.404445132151630E+06
 VX= 1.131235162325461E+01 VY= 2.394600132926683E+01 VZ= 2.248156053349266E-01
 LT= 6.848425817284650E+02 RG= 2.053106409194424E+08 RR=-1.014899723200099E-01
2459750.500000000 = A.D. 2022-Jun-20 00:00:00.0000 TDB 
 X = 1.862008676166426E+08 Y =-8.624271170626043E+07 Z =-6.384660311605949E+06
 VX= 1.106930879151770E+01 VY= 2.405977977449906E+01 VZ= 2.331621596570752E-01
 LT= 6.848171796792451E+02 RG= 2.053030255766685E+08 RR=-7.478901518823065E-02
2459751.500000000 = A.D. 2022-Jun-21 00:00:00.0000 TDB 
 X = 1.871467111486058E+08 Y =-8.415912856379142E+07 Z =-6.364155453700054E+06
 VX= 1.082501115778892E+01 VY= 2.417086057350357E+01 VZ= 2.414829542231924E-01
 LT= 6.847994744773180E+02 RG= 2.052977176906634E+08 RR=-4.807730620158444E-02
2459752.500000000 = A.D. 2022-Jun-22 00:00:00.0000 TDB 
 X = 1.880713944193255E+08 Y =-8.206606515925953E+07 Z =-6.342932835525576E+06
 VX= 1.057949377342884E+01 VY= 2.427922758931058E+01 VZ= 2.497767874528183E-01
 LT= 6.847894686497450E+02 RG= 2.052947180190210E+08 RR=-2.135877907877322E-02
2459753.500000000 = A.D. 2022-Jun-23 00:00:00.0000 TDB 
 X = 1.889748135642982E+08 Y =-7.996375663994673E+07 Z =-6.320994837499700E+06
 VX= 1.033279193866720E+01 VY= 2.438486525590962E+01 VZ= 2.580424667561978E-01
 LT= 6.847871635892875E+02 RG= 2.052940269792806E+08 RR= 5.362621128560395E-03
2459754.500000000 = A.D. 2022-Jun-24 00:00:00.0000 TDB 
 X = 1.898568677792129E+08 Y =-7.785243947575970E+07 Z =-6.298343942793075E+06
 VX= 1.008494118734106E+01 VY= 2.448775856443853E+01 VZ= 2.662788096191147E-01
 LT= 6.847925595532986E+02 RG= 2.052956446485948E+08 RR= 3.208294318566229E-02
2459755.500000000 = A.D. 2022-Jun-25 00:00:00.0000 TDB 
 X = 1.907174593404131E+08 Y =-7.573235141009840E+07 Z =-6.274982736767460E+06
 VX= 9.835977274494693E+00 VY= 2.458789305401032E+01 VZ= 2.744846435242163E-01
 LT= 6.848056556632362E+02 RG= 2.052995707635832E+08 RR= 5.879823458433047E-02
2459756.500000000 = A.D. 2022-Jun-26 00:00:00.0000 TDB 
 X = 1.915564936245485E+08 Y =-7.360373141043742E+07 Z =-6.250913906470452E+06
 VX= 9.585936177479184E+00 VY= 2.468525482229823E+01 VZ= 2.826588007308839E-01
 LT= 6.848264499052656E+02 RG= 2.053058047205134E+08 RR= 8.550455124051883E-02
2459757.500000000 = A.D. 2022-Jun-27 00:00:00.0000 TDB 
 X = 1.923738791272435E+08 Y =-7.146681961867315E+07 Z =-6.226140240117673E+06
 VX= 9.334854099100037E+00 VY= 2.477983054994194E+01 VZ= 2.908001129109667E-01
 LT= 6.848549391314519E+02 RG= 2.053143455756584E+08 RR= 1.121979649659796E-01
2459758.500000000 = A.D. 2022-Jun-28 00:00:00.0000 TDB 
 X = 1.931695274806104E+08 Y =-6.932185730107340E+07 Z =-6.200664626473483E+06
 VX= 9.082767455735686E+00 VY= 2.487160751414504E+01 VZ= 2.989074121297968E-01
 LT= 6.848911190607751E+02 RG= 2.053251920456004E+08 RR= 1.388745618391754E-01
2459759.500000000 = A.D. 2022-Jun-29 00:00:00.0000 TDB 
 X = 1.939433534696690E+08 Y =-6.716908679771258E+07 Z =-6.174490054148283E+06
 VX= 8.829712851754007E+00 VY= 2.496057358720046E+01 VZ= 3.069795372686706E-01
 LT= 6.849349842800331E+02 RG= 2.053383425075025E+08 RR= 1.655304329882410E-01
2459760.500000000 = A.D. 2022-Jun-30 00:00:00.0000 TDB 
 X = 1.946952750478421E+08 Y =-6.500875147152378E+07 Z =-6.147619610898912E+06
 VX= 8.575727052202298E+00 VY= 2.504671723551562E+01 VZ= 3.150153413986985E-01
 LT= 6.849865282453521E+02 RG= 2.053537949995605E+08 RR= 1.921616629103371E-01
2459761.500000000 = A.D. 2022-Jul-01 00:00:00.0000 TDB 
 X = 1.954252133515124E+08 Y =-6.284109565721801E+07 Z =-6.120056482947540E+06
 VX= 8.320846964961408E+00 VY= 2.513002752149613E+01 VZ= 3.230136951386253E-01
 LT= 6.850457432845358E+02 RG= 2.053715472217080E+08 RR= 2.187643254130626E-01
2459762.500000000 = A.D. 2022-Jul-02 00:00:00.0000 TDB 
 X = 1.961330927134674E+08 Y =-6.066636461015110E+07 Z =-6.091803954248179E+06
 VX= 8.065109637478727E+00 VY= 2.521049409712381E+01 VZ= 3.309734827192035E-01
 LT= 6.851126205997389E+02 RG= 2.053915965364172E+08 RR= 2.453344959223049E-01
2459763.500000000 = A.D. 2022-Jul-03 00:00:00.0000 TDB 
 X = 1.968188406751869E+08 Y =-5.848480445497815E+07 Z =-6.062865405668065E+06
 VX= 7.808552262493386E+00 VY= 2.528810719327965E+01 VZ= 3.388935931164294E-01
 LT= 6.851871502701016E+02 RG= 2.054139399694891E+08 RR= 2.718682733336221E-01
2459764.500000000 = A.D. 2022-Jul-04 00:00:00.0000 TDB 
 X = 1.974823879981397E+08 Y =-5.629666213394081E+07 Z =-6.033244314149540E+06
 VX= 7.551212175302801E+00 VY= 2.536285762511930E+01 VZ= 3.467729157186152E-01
 LT= 6.852693212547160E+02 RG= 2.054385742109430E+08 RR= 2.983617886767526E-01
2459765.500000000 = A.D. 2022-Jul-05 00:00:00.0000 TDB 
 X = 1.981236686742108E+08 Y =-5.410218535487368E+07 Z =-6.002944251914505E+06
 VX= 7.293126833976235E+00 VY= 2.543473681338726E+01 VZ= 3.546103451750078E-01
 LT= 6.853591213964341E+02 RG= 2.054654956161574E+08 RR= 3.248111931885437E-01
